ORBCOMM FM05            
1 25117U 97084F   24333.49155208  .00005639  00000+0  16553-2 0  9997
2 25117  45.0143 250.7393 0002490 314.1074  45.9572 14.44560100411574
ORBCOMM FM06            
1 25118U 97084G   24333.53771481  .00006376  00000+0  18593-2 0  9995
2 25118  45.0136 250.5110 0001783 333.1768 196.4036 14.44733162412496
ORBCOMM FM07            
1 25119U 97084H   24333.51085245  .00005735  00000+0  16813-2 0  9991
2 25119  45.0132 251.3293 0002982 301.0828  58.9730 14.44598641412480
ORBCOMM FM03            
1 25158U 98007B   24333.58036106  .00004877  00000+0  17844-2 0  9990
2 25158 107.9668  83.7482 0048748 240.5922 119.0345 14.33468048395288
ORBCOMM FM04            
1 25159U 98007C   24333.60087350  .00004933  00000+0  17988-2 0  9993
2 25159 107.9654  86.8701 0044354 238.3378 121.3431 14.33738196395467
ORBCOMM FM17            
1 25413U 98046A   24333.16400713  .00003207  00000+0  11818-2 0  9991
2 25413  44.9921 125.7919 0002597 253.8235 106.2326 14.34261671374303
ORBCOMM FM18            
1 25414U 98046B   24333.51183611  .00005004  00000+0  17046-2 0  9992
2 25414  44.9941  46.6943 0004588 319.6111  40.4396 14.37413832375364
ORBCOMM FM19            
1 25415U 98046C   24333.50446700  .00004765  00000+0  16311-2 0  9990
2 25415  44.9949  48.4182 0003883 304.6776  69.8238 14.37238627375329
