<?xml version="1.0" encoding="UTF-8"?>
<ndm xmlns:xsi="http://www.w3.org/2001/XMLSchema-instance" xsi:noNamespaceSchemaLocation="https://sanaregistry.org/r/ndmxml_unqualified/ndmxml-2.0.0-master-2.0.xsd">
<omm id="CCSDS_OMM_VERS" version="2.0">
<header><CREATION_DATE/><ORIGINATOR/></header><body><segment><metadata><OBJECT_NAME>ORBCOMM FM05</OBJECT_NAME><OBJECT_ID>1997-084F</OBJECT_ID><CENTER_NAME>EARTH</CENTER_NAME><REF_FRAME>TEME</REF_FRAME><TIME_SYSTEM>UTC</TIME_SYSTEM><MEAN_ELEMENT_THEORY>SGP4</MEAN_ELEMENT_THEORY></metadata><data><meanElements><EPOCH>2024-11-28T11:47:50.099712</EPOCH><MEAN_MOTION>14.44560100</MEAN_MOTION><ECCENTRICITY>.000249</ECCENTRICITY><INCLINATION>45.0143</INCLINATION><RA_OF_ASC_NODE>250.7393</RA_OF_ASC_NODE><ARG_OF_PERICENTER>314.1074</ARG_OF_PERICENTER><MEAN_ANOMALY>45.9572</MEAN_ANOMALY></meanElements><tleParameters><EPHEMERIS_TYPE>0</EPHEMERIS_TYPE><CLASSIFICATION_TYPE>U</CLASSIFICATION_TYPE><NORAD_CAT_ID>25117</NORAD_CAT_ID><ELEMENT_SET_NO>999</ELEMENT_SET_NO><REV_AT_EPOCH>41157</REV_AT_EPOCH><BSTAR>.16553E-2</BSTAR><MEAN_MOTION_DOT>.5639E-4</MEAN_MOTION_DOT><MEAN_MOTION_DDOT>0</MEAN_MOTION_DDOT></tleParameters></data></segment></body></omm>
<omm id="CCSDS_OMM_VERS" version="2.0">
<header><CREATION_DATE/><ORIGINATOR/></header><body><segment><metadata><OBJECT_NAME>ORBCOMM FM06</OBJECT_NAME><OBJECT_ID>1997-084G</OBJECT_ID><CENTER_NAME>EARTH</CENTER_NAME><REF_FRAME>TEME</REF_FRAME><TIME_SYSTEM>UTC</TIME_SYSTEM><MEAN_ELEMENT_THEORY>SGP4</MEAN_ELEMENT_THEORY></metadata><data><meanElements><EPOCH>2024-11-28T12:54:18.559584</EPOCH><MEAN_MOTION>14.44733162</MEAN_MOTION><ECCENTRICITY>.0001783</ECCENTRICITY><INCLINATION>45.0136</INCLINATION><RA_OF_ASC_NODE>250.5110</RA_OF_ASC_NODE><ARG_OF_PERICENTER>333.1768</ARG_OF_PERICENTER><MEAN_ANOMALY>196.4036</MEAN_ANOMALY></meanElements><tleParameters><EPHEMERIS_TYPE>0</EPHEMERIS_TYPE><CLASSIFICATION_TYPE>U</CLASSIFICATION_TYPE><NORAD_CAT_ID>25118</NORAD_CAT_ID><ELEMENT_SET_NO>999</ELEMENT_SET_NO><REV_AT_EPOCH>41249</REV_AT_EPOCH><BSTAR>.18593E-2</BSTAR><MEAN_MOTION_DOT>.6376E-4</MEAN_MOTION_DOT><MEAN_MOTION_DDOT>0</MEAN_MOTION_DDOT></tleParameters></data></segment></body></omm>
<omm id="CCSDS_OMM_VERS" version="2.0">
<header><CREATION_DATE/><ORIGINATOR/></header><body><segment><metadata><OBJECT_NAME>ORBCOMM FM07</OBJECT_NAME><OBJECT_ID>1997-084H</OBJECT_ID><CENTER_NAME>EARTH</CENTER_NAME><REF_FRAME>TEME</REF_FRAME><TIME_SYSTEM>UTC</TIME_SYSTEM><MEAN_ELEMENT_THEORY>SGP4</MEAN_ELEMENT_THEORY></metadata><data><meanElements><EPOCH>2024-11-28T12:15:37.651680</EPOCH><MEAN_MOTION>14.44598641</MEAN_MOTION><ECCENTRICITY>.0002982</ECCENTRICITY><INCLINATION>45.0132</INCLINATION><RA_OF_ASC_NODE>251.3293</RA_OF_ASC_NODE><ARG_OF_PERICENTER>301.0828</ARG_OF_PERICENTER><MEAN_ANOMALY>58.9730</MEAN_ANOMALY></meanElements><tleParameters><EPHEMERIS_TYPE>0</EPHEMERIS_TYPE><CLASSIFICATION_TYPE>U</CLASSIFICATION_TYPE><NORAD_CAT_ID>25119</NORAD_CAT_ID><ELEMENT_SET_NO>999</ELEMENT_SET_NO><REV_AT_EPOCH>41248</REV_AT_EPOCH><BSTAR>.16813E-2</BSTAR><MEAN_MOTION_DOT>.5735E-4</MEAN_MOTION_DOT><MEAN_MOTION_DDOT>0</MEAN_MOTION_DDOT></tleParameters></data></segment></body></omm>
<omm id="CCSDS_OMM_VERS" version="2.0">
<header><CREATION_DATE/><ORIGINATOR/></header><body><segment><metadata><OBJECT_NAME>ORBCOMM FM03</OBJECT_NAME><OBJECT_ID>1998-007B</OBJECT_ID><CENTER_NAME>EARTH</CENTER_NAME><REF_FRAME>TEME</REF_FRAME><TIME_SYSTEM>UTC</TIME_SYSTEM><MEAN_ELEMENT_THEORY>SGP4</MEAN_ELEMENT_THEORY></metadata><data><meanElements><EPOCH>2024-11-28T13:55:43.195584</EPOCH><MEAN_MOTION>14.33468048</MEAN_MOTION><ECCENTRICITY>.0048748</ECCENTRICITY><INCLINATION>107.9668</INCLINATION><RA_OF_ASC_NODE>83.7482</RA_OF_ASC_NODE><ARG_OF_PERICENTER>240.5922</ARG_OF_PERICENTER><MEAN_ANOMALY>119.0345</MEAN_ANOMALY></meanElements><tleParameters><EPHEMERIS_TYPE>0</EPHEMERIS_TYPE><CLASSIFICATION_TYPE>U</CLASSIFICATION_TYPE><NORAD_CAT_ID>25158</NORAD_CAT_ID><ELEMENT_SET_NO>999</ELEMENT_SET_NO><REV_AT_EPOCH>39528</REV_AT_EPOCH><BSTAR>.17844E-2</BSTAR><MEAN_MOTION_DOT>.4877E-4</MEAN_MOTION_DOT><MEAN_MOTION_DDOT>0</MEAN_MOTION_DDOT></tleParameters></data></segment></body></omm>
<omm id="CCSDS_OMM_VERS" version="2.0">
<header><CREATION_DATE/><ORIGINATOR/></header><body><segment><metadata><OBJECT_NAME>ORBCOMM FM04</OBJECT_NAME><OBJECT_ID>1998-007C</OBJECT_ID><CENTER_NAME>EARTH</CENTER_NAME><REF_FRAME>TEME</REF_FRAME><TIME_SYSTEM>UTC</TIME_SYSTEM><MEAN_ELEMENT_THEORY>SGP4</MEAN_ELEMENT_THEORY></metadata><data><meanElements><EPOCH>2024-11-28T14:25:15.470400</EPOCH><MEAN_MOTION>14.33738196</MEAN_MOTION><ECCENTRICITY>.0044354</ECCENTRICITY><INCLINATION>107.9654</INCLINATION><RA_OF_ASC_NODE>86.8701</RA_OF_ASC_NODE><ARG_OF_PERICENTER>238.3378</ARG_OF_PERICENTER><MEAN_ANOMALY>121.3431</MEAN_ANOMALY></meanElements><tleParameters><EPHEMERIS_TYPE>0</EPHEMERIS_TYPE><CLASSIFICATION_TYPE>U</CLASSIFICATION_TYPE><NORAD_CAT_ID>25159</NORAD_CAT_ID><ELEMENT_SET_NO>999</ELEMENT_SET_NO><REV_AT_EPOCH>39546</REV_AT_EPOCH><BSTAR>.17988E-2</BSTAR><MEAN_MOTION_DOT>.4933E-4</MEAN_MOTION_DOT><MEAN_MOTION_DDOT>0</MEAN_MOTION_DDOT></tleParameters></data></segment></body></omm>
<omm id="CCSDS_OMM_VERS" version="2.0">
<header><CREATION_DATE/><ORIGINATOR/></header><body><segment><metadata><OBJECT_NAME>ORBCOMM FM17</OBJECT_NAME><OBJECT_ID>1998-046A</OBJECT_ID><CENTER_NAME>EARTH</CENTER_NAME><REF_FRAME>TEME</REF_FRAME><TIME_SYSTEM>UTC</TIME_SYSTEM><MEAN_ELEMENT_THEORY>SGP4</MEAN_ELEMENT_THEORY></metadata><data><meanElements><EPOCH>2024-11-28T03:56:10.216032</EPOCH><MEAN_MOTION>14.34261671</MEAN_MOTION><ECCENTRICITY>.0002597</ECCENTRICITY><INCLINATION>44.9921</INCLINATION><RA_OF_ASC_NODE>125.7919</RA_OF_ASC_NODE><ARG_OF_PERICENTER>253.8235</ARG_OF_PERICENTER><MEAN_ANOMALY>106.2326</MEAN_ANOMALY></meanElements><tleParameters><EPHEMERIS_TYPE>0</EPHEMERIS_TYPE><CLASSIFICATION_TYPE>U</CLASSIFICATION_TYPE><NORAD_CAT_ID>25413</NORAD_CAT_ID><ELEMENT_SET_NO>999</ELEMENT_SET_NO><REV_AT_EPOCH>37430</REV_AT_EPOCH><BSTAR>.11818E-2</BSTAR><MEAN_MOTION_DOT>.3207E-4</MEAN_MOTION_DOT><MEAN_MOTION_DDOT>0</MEAN_MOTION_DDOT></tleParameters></data></segment></body></omm>
<omm id="CCSDS_OMM_VERS" version="2.0">
<header><CREATION_DATE/><ORIGINATOR/></header><body><segment><metadata><OBJECT_NAME>ORBCOMM FM18</OBJECT_NAME><OBJECT_ID>1998-046B</OBJECT_ID><CENTER_NAME>EARTH</CENTER_NAME><REF_FRAME>TEME</REF_FRAME><TIME_SYSTEM>UTC</TIME_SYSTEM><MEAN_ELEMENT_THEORY>SGP4</MEAN_ELEMENT_THEORY></metadata><data><meanElements><EPOCH>2024-11-28T12:17:02.639904</EPOCH><MEAN_MOTION>14.37413832</MEAN_MOTION><ECCENTRICITY>.0004588</ECCENTRICITY><INCLINATION>44.9941</INCLINATION><RA_OF_ASC_NODE>46.6943</RA_OF_ASC_NODE><ARG_OF_PERICENTER>319.6111</ARG_OF_PERICENTER><MEAN_ANOMALY>40.4396</MEAN_ANOMALY></meanElements><tleParameters><EPHEMERIS_TYPE>0</EPHEMERIS_TYPE><CLASSIFICATION_TYPE>U</CLASSIFICATION_TYPE><NORAD_CAT_ID>25414</NORAD_CAT_ID><ELEMENT_SET_NO>999</ELEMENT_SET_NO><REV_AT_EPOCH>37536</REV_AT_EPOCH><BSTAR>.17046E-2</BSTAR><MEAN_MOTION_DOT>.5004E-4</MEAN_MOTION_DOT><MEAN_MOTION_DDOT>0</MEAN_MOTION_DDOT></tleParameters></data></segment></body></omm>
<omm id="CCSDS_OMM_VERS" version="2.0">
<header><CREATION_DATE/><ORIGINATOR/></header><body><segment><metadata><OBJECT_NAME>ORBCOMM FM19</OBJECT_NAME><OBJECT_ID>1998-046C</OBJECT_ID><CENTER_NAME>EARTH</CENTER_NAME><REF_FRAME>TEME</REF_FRAME><TIME_SYSTEM>UTC</TIME_SYSTEM><MEAN_ELEMENT_THEORY>SGP4</MEAN_ELEMENT_THEORY></metadata><data><meanElements><EPOCH>2024-11-28T12:06:25.948800</EPOCH><MEAN_MOTION>14.37238627</MEAN_MOTION><ECCENTRICITY>.0003883</ECCENTRICITY><INCLINATION>44.9949</INCLINATION><RA_OF_ASC_NODE>48.4182</RA_OF_ASC_NODE><ARG_OF_PERICENTER>304.6776</ARG_OF_PERICENTER><MEAN_ANOMALY>69.8238</MEAN_ANOMALY></meanElements><tleParameters><EPHEMERIS_TYPE>0</EPHEMERIS_TYPE><CLASSIFICATION_TYPE>U</CLASSIFICATION_TYPE><NORAD_CAT_ID>25415</NORAD_CAT_ID><ELEMENT_SET_NO>999</ELEMENT_SET_NO><REV_AT_EPOCH>37532</REV_AT_EPOCH><BSTAR>.16311E-2</BSTAR><MEAN_MOTION_DOT>.4765E-4</MEAN_MOTION_DOT><MEAN_MOTION_DDOT>0</MEAN_MOTION_DDOT></tleParameters></data></segment></body></omm>

</ndm>
